LANDSAT 9               
1 49260U 21088A   23326.78943421  .00000698  00000+0  16507-3 0  9998
2 49260  98.2141  34.6492 0001231  90.2783 269.8557 14.57100225114489
